STARLINK-1894
1 46744U 20074F   26061.16668981  .00206362  00000+0  11949-2 0  9992
2 46744  53.0448 315.4529 0000224 175.7797 200.8015 15.77460251  5921
